{"type": "FeatureCollection", "features": [{"type": "Feature", "properties": {"norad_id": 28890, "name": "BEIJING 1", "group": "dmc", "lat": 17.203947805510698, "lon": -48.78782264216368, "alt_km": 677.7591270698913, "timestamp": "2025-12-27T02:10:15.854590+00:00", "meta": {"OBJECT_NAME": "BEIJING 1", "OBJECT_ID": "2005-043A", "EPOCH": "2025-12-26T20:30:33.861312", "MEAN_MOTION": 14.63379255, "ECCENTRICITY": 0.001587, "INCLINATION": 98.2663, "RA_OF_ASC_NODE": 128.3958, "ARG_OF_PERICENTER": 99.8014, "MEAN_ANOMALY": 260.498, "EPHEMERIS_TYPE": 0, "CLASSIFICATION_TYPE": "U", "NORAD_CAT_ID": 28890, "ELEMENT_SET_NO": 999, "REV_AT_EPOCH": 7544, "BSTAR": 0.00011163, "MEAN_MOTION_DOT": 5.29e-06, "MEAN_MOTION_DDOT": 0}, "tle": {"line1": "1 28890U 05043A   25360.85455858  .00000529  00000+0  11163-3 0  9993", "line2": "2 28890  98.2663 128.3958 0015870  99.8014 260.4980 14.63379255 75445"}}, "geometry": {"type": "Point", "coordinates": [-48.78782264216368, 17.203947805510698]}}, {"type": "Feature", "properties": {"norad_id": 33320, "name": "HUANJING 1A (HJ-1A)", "group": "dmc", "lat": 36.4095498397259, "lon": 174.48326686265094, "alt_km": 627.9981329469247, "timestamp": "2025-12-27T02:10:15.854623+00:00", "meta": {"OBJECT_NAME": "HUANJING 1A (HJ-1A)", "OBJECT_ID": "2008-041A", "EPOCH": "2025-12-26T20:40:18.128352", "MEAN_MOTION": 14.8343855, "ECCENTRICITY": 0.0019011, "INCLINATION": 97.6555, "RA_OF_ASC_NODE": 348.5705, "ARG_OF_PERICENTER": 349.1672, "MEAN_ANOMALY": 10.9131, "EPHEMERIS_TYPE": 0, "CLASSIFICATION_TYPE": "U", "NORAD_CAT_ID": 33320, "ELEMENT_SET_NO": 999, "REV_AT_EPOCH": 93285, "BSTAR": 0.00024089, "MEAN_MOTION_DOT": 1.933e-05, "MEAN_MOTION_DDOT": 0}, "tle": {"line1": "1 33320U 08041A   25360.86132093  .00001933  00000+0  24089-3 0  9993", "line2": "2 33320  97.6555 348.5705 0019011 349.1672  10.9131 14.83438550932859"}}, "geometry": {"type": "Point", "coordinates": [174.48326686265094, 36.4095498397259]}}, {"type": "Feature", "properties": {"norad_id": 33321, "name": "HUANJING 1B (HJ-1B)", "group": "dmc", "lat": -25.856203587592105, "lon": -3.8200819275292535, "alt_km": 611.29908559471, "timestamp": "2025-12-27T02:10:15.854638+00:00", "meta": {"OBJECT_NAME": "HUANJING 1B (HJ-1B)", "OBJECT_ID": "2008-041B", "EPOCH": "2025-12-26T21:25:46.037280", "MEAN_MOTION": 14.82859937, "ECCENTRICITY": 0.0037639, "INCLINATION": 97.6413, "RA_OF_ASC_NODE": 352.2606, "ARG_OF_PERICENTER": 30.8984, "MEAN_ANOMALY": 329.4434, "EPHEMERIS_TYPE": 0, "CLASSIFICATION_TYPE": "U", "NORAD_CAT_ID": 33321, "ELEMENT_SET_NO": 999, "REV_AT_EPOCH": 93287, "BSTAR": 0.00020607, "MEAN_MOTION_DOT": 1.638e-05, "MEAN_MOTION_DDOT": 0}, "tle": {"line1": "1 33321U 08041B   25360.89289395  .00001638  00000+0  20607-3 0  9999", "line2": "2 33321  97.6413 352.2606 0037639  30.8984 329.4434 14.82859937932872"}}, "geometry": {"type": "Point", "coordinates": [-3.8200819275292535, -25.856203587592105]}}, {"type": "Feature", "properties": {"norad_id": 33446, "name": "YAOGAN-4", "group": "dmc", "lat": -58.356635249131, "lon": 97.99470477274052, "alt_km": 620.2595635133584, "timestamp": "2025-12-27T02:10:15.854650+00:00", "meta": {"OBJECT_NAME": "YAOGAN-4", "OBJECT_ID": "2008-061A", "EPOCH": "2025-12-26T18:36:57.310848", "MEAN_MOTION": 14.82723581, "ECCENTRICITY": 0.0012963, "INCLINATION": 97.9198, "RA_OF_ASC_NODE": 290.7385, "ARG_OF_PERICENTER": 273.4167, "MEAN_ANOMALY": 86.5564, "EPHEMERIS_TYPE": 0, "CLASSIFICATION_TYPE": "U", "NORAD_CAT_ID": 33446, "ELEMENT_SET_NO": 999, "REV_AT_EPOCH": 92011, "BSTAR": 0.00019776, "MEAN_MOTION_DOT": 1.545e-05, "MEAN_MOTION_DDOT": 0}, "tle": {"line1": "1 33446U 08061A   25360.77566332  .00001545  00000+0  19776-3 0  9997", "line2": "2 33446  97.9198 290.7385 0012963 273.4167  86.5564 14.82723581920118"}}, "geometry": {"type": "Point", "coordinates": [97.99470477274052, -58.356635249131]}}, {"type": "Feature", "properties": {"norad_id": 35681, "name": "DEIMOS-1", "group": "dmc", "lat": -30.262414310565337, "lon": 165.5638796757399, "alt_km": 651.16594347922, "timestamp": "2025-12-27T02:10:15.854661+00:00", "meta": {"OBJECT_NAME": "DEIMOS-1", "OBJECT_ID": "2009-041A", "EPOCH": "2025-12-26T21:25:29.792352", "MEAN_MOTION": 14.74975615, "ECCENTRICITY": 0.0002409, "INCLINATION": 97.716, "RA_OF_ASC_NODE": 160.8381, "ARG_OF_PERICENTER": 58.2463, "MEAN_ANOMALY": 301.8981, "EPHEMERIS_TYPE": 0, "CLASSIFICATION_TYPE": "U", "NORAD_CAT_ID": 35681, "ELEMENT_SET_NO": 999, "REV_AT_EPOCH": 88148, "BSTAR": 0.0001878, "MEAN_MOTION_DOT": 1.215e-05, "MEAN_MOTION_DDOT": 0}, "tle": {"line1": "1 35681U 09041A   25360.89270593  .00001215  00000+0  18780-3 0  9991", "line2": "2 35681  97.7160 160.8381 0002409  58.2463 301.8981 14.74975615881483"}}, "geometry": {"type": "Point", "coordinates": [165.5638796757399, -30.262414310565337]}}, {"type": "Feature", "properties": {"norad_id": 35683, "name": "UK-DMC 2", "group": "dmc", "lat": 19.23310691795403, "lon": 132.82748044331737, "alt_km": 642.9164410824078, "timestamp": "2025-12-27T02:10:15.854672+00:00", "meta": {"OBJECT_NAME": "UK-DMC 2", "OBJECT_ID": "2009-041C", "EPOCH": "2025-12-26T21:12:04.197888", "MEAN_MOTION": 14.75653707, "ECCENTRICITY": 0.0001603, "INCLINATION": 97.8573, "RA_OF_ASC_NODE": 135.3878, "ARG_OF_PERICENTER": 90.9727, "MEAN_ANOMALY": 269.1667, "EPHEMERIS_TYPE": 0, "CLASSIFICATION_TYPE": "U", "NORAD_CAT_ID": 35683, "ELEMENT_SET_NO": 999, "REV_AT_EPOCH": 88115, "BSTAR": 0.00025865, "MEAN_MOTION_DOT": 1.717e-05, "MEAN_MOTION_DDOT": 0}, "tle": {"line1": "1 35683U 09041C   25360.88338192  .00001717  00000+0  25865-3 0  9991", "line2": "2 35683  97.8573 135.3878 0001603  90.9727 269.1667 14.75653707881150"}}, "geometry": {"type": "Point", "coordinates": [132.82748044331737, 19.23310691795403]}}, {"type": "Feature", "properties": {"norad_id": 40715, "name": "DMC3-FM1", "group": "dmc", "lat": -34.376434941499944, "lon": 42.471357744819144, "alt_km": 616.4042614592545, "timestamp": "2025-12-27T02:10:15.854682+00:00", "meta": {"OBJECT_NAME": "DMC3-FM1", "OBJECT_ID": "2015-032A", "EPOCH": "2025-12-26T20:21:26.939808", "MEAN_MOTION": 14.85463713, "ECCENTRICITY": 0.0004081, "INCLINATION": 97.6678, "RA_OF_ASC_NODE": 227.5263, "ARG_OF_PERICENTER": 261.4012, "MEAN_ANOMALY": 98.6741, "EPHEMERIS_TYPE": 0, "CLASSIFICATION_TYPE": "U", "NORAD_CAT_ID": 40715, "ELEMENT_SET_NO": 999, "REV_AT_EPOCH": 56432, "BSTAR": 0.00011974, "MEAN_MOTION_DOT": 9.81e-06, "MEAN_MOTION_DDOT": 0}, "tle": {"line1": "1 40715U 15032A   25360.84822847  .00000981  00000+0  11974-3 0  9999", "line2": "2 40715  97.6678 227.5263 0004081 261.4012  98.6741 14.85463713564325"}}, "geometry": {"type": "Point", "coordinates": [42.471357744819144, -34.376434941499944]}}, {"type": "Feature", "properties": {"norad_id": 40716, "name": "DMC3-FM2", "group": "dmc", "lat": 81.08919536509947, "lon": 108.52232820364834, "alt_km": 607.8257004478455, "timestamp": "2025-12-27T02:10:15.854693+00:00", "meta": {"OBJECT_NAME": "DMC3-FM2", "OBJECT_ID": "2015-032B", "EPOCH": "2025-12-26T20:53:48.951744", "MEAN_MOTION": 14.85468513, "ECCENTRICITY": 0.0004518, "INCLINATION": 97.6736, "RA_OF_ASC_NODE": 229.002, "ARG_OF_PERICENTER": 268.6414, "MEAN_ANOMALY": 91.4284, "EPHEMERIS_TYPE": 0, "CLASSIFICATION_TYPE": "U", "NORAD_CAT_ID": 40716, "ELEMENT_SET_NO": 999, "REV_AT_EPOCH": 56432, "BSTAR": 0.00019445, "MEAN_MOTION_DOT": 1.626e-05, "MEAN_MOTION_DDOT": 0}, "tle": {"line1": "1 40716U 15032B   25360.87070546  .00001626  00000+0  19445-3 0  9992", "line2": "2 40716  97.6736 229.0020 0004518 268.6414  91.4284 14.85468513564325"}}, "geometry": {"type": "Point", "coordinates": [108.52232820364834, 81.08919536509947]}}, {"type": "Feature", "properties": {"norad_id": 40717, "name": "DMC3-FM3", "group": "dmc", "lat": -21.588255183349688, "lon": -126.08294089013361, "alt_km": 616.5639214707508, "timestamp": "2025-12-27T02:10:15.854703+00:00", "meta": {"OBJECT_NAME": "DMC3-FM3", "OBJECT_ID": "2015-032C", "EPOCH": "2025-12-26T21:25:08.234688", "MEAN_MOTION": 14.8545221, "ECCENTRICITY": 0.0003861, "INCLINATION": 97.6793, "RA_OF_ASC_NODE": 230.6656, "ARG_OF_PERICENTER": 269.8883, "MEAN_ANOMALY": 90.189, "EPHEMERIS_TYPE": 0, "CLASSIFICATION_TYPE": "U", "NORAD_CAT_ID": 40717, "ELEMENT_SET_NO": 999, "REV_AT_EPOCH": 56433, "BSTAR": 0.00011676, "MEAN_MOTION_DOT": 9.55e-06, "MEAN_MOTION_DDOT": 0}, "tle": {"line1": "1 40717U 15032C   25360.89245642  .00000955  00000+0  11676-3 0  9998", "line2": "2 40717  97.6793 230.6656 0003861 269.8883  90.1890 14.85452210564332"}}, "geometry": {"type": "Point", "coordinates": [-126.08294089013361, -21.588255183349688]}}]}